ONEWEB-0574             
1 56063U 23043T   24099.91349961 -.00000060  00000+0 -17691-3 0  9992
2 56063  87.9294  43.0569 0001954  84.2843 275.8514 13.21824728 52687
ONEWEB-0575             
1 56064U 23043U   24100.04856492 -.00000021  00000+0 -88790-4 0  9998
2 56064  87.9143  27.8240 0002302  65.5899 294.5472 13.16596443 53819
ONEWEB-0576             
1 56065U 23043V   24100.02955487  .00000080  00000+0  17671-3 0  9993
2 56065  87.9144  27.8268 0002383  77.5617 282.5781 13.16597630 53809
ONEWEB-0577             
1 56066U 23043W   24100.03589532  .00000062  00000+0  12850-3 0  9993
2 56066  87.9144  27.8244 0002449  60.6951 299.4424 13.16592456 53836
ONEWEB-0578             
1 56067U 23043X   24099.90088077 -.00000036  00000+0 -11958-3 0  9996
2 56067  87.9297  43.0554 0002084  81.7376 278.3995 13.21824071 53555
ONEWEB-0579             
1 56068U 23043Y   24099.89142596  .00000009  00000+0 -85148-5 0  9995
2 56068  87.9294  43.0570 0001534  73.2027 286.9275 13.21826380 53561
ONEWEB-0581             
1 56069U 23043Z   24100.04222254  .00000004  00000+0 -22575-4 0  9995
2 56069  87.9143  27.8528 0001960  59.3934 300.7390 13.16597301 53805
ONEWEB-0609             
1 56070U 23043AA  24099.97335555 -.00000108  00000+0 -32040-3 0  9998
2 56070  87.9012  58.2582 0001869  83.3655 276.7688 13.15547690 51350
